{"type": "FeatureCollection", "features": [ {"type": "Feature", "properties": {"norad_id": 34682, "name": "COSMOS 2251 DEB", "group": "cosmos-2251-debris", "lat": 31.27700426328159, "lon": -105.51439373237018, "alt_km": 690.2484823930217, "timestamp": "2025-12-11T22:43:47.665599+00:00", "meta": {"OBJECT_NAME": "COSMOS 2251 DEB", "OBJECT_ID": "1993-036YC", "EPOCH": "2025-12-11T13:53:50.167968", "MEAN_MOTION": 14.58882941, "ECCENTRICITY": 0.0018378, "INCLINATION": 74.0392, "RA_OF_ASC_NODE": 85.198, "ARG_OF_PERICENTER": 218.1607, "MEAN_ANOMALY": 157.1828, "EPHEMERIS_TYPE": 0, "CLASSIFICATION_TYPE": "U", "NORAD_CAT_ID": 34682, "ELEMENT_SET_NO": 999, "REV_AT_EPOCH": 88669, "BSTAR": 0.0013393775, "MEAN_MOTION_DOT": 6.264e-05, "MEAN_MOTION_DDOT": 0}, "tle": {"line1": "1 34682U 93036YC  25345.57905287  .00006264  00000+0  13394-2 0  9995", "line2": "2 34682  74.0392  85.1980 0018378 218.1607 157.1828 14.58882941886692"}}, "geometry": {"type": "Point", "coordinates": [-105.51439373237018, 31.27700426328159]}}, {"type": "Feature", "properties": {"norad_id": 34683, "name": "COSMOS 2251 DEB", "group": "cosmos-2251-debris", "lat": -68.76165203666457, "lon": 46.32335598419569, "alt_km": 682.4211457162219, "timestamp": "2025-12-11T22:43:47.665609+00:00", "meta": {"OBJECT_NAME": "COSMOS 2251 DEB", "OBJECT_ID": "1993-036YD", "EPOCH": "2025-12-11T08:34:43.110624", "MEAN_MOTION": 14.64459504, "ECCENTRICITY": 0.00182932, "INCLINATION": 74.0287, "RA_OF_ASC_NODE": 94.9248, "ARG_OF_PERICENTER": 209.9511, "MEAN_ANOMALY": 206.723, "EPHEMERIS_TYPE": 0, "CLASSIFICATION_TYPE": "U", "NORAD_CAT_ID": 34683, "ELEMENT_SET_NO": 999, "REV_AT_EPOCH": 88328, "BSTAR": 0.0027933889, "MEAN_MOTION_DOT": 0.00014829, "MEAN_MOTION_DDOT": 0}, "tle": {"line1": "1 34683U 93036YD  25345.35744341  .00014829  00000+0  27934-2 0  9995", "line2": "2 34683  74.0287  94.9248 0018293 209.9511 206.7230 14.64459504883281"}}, "geometry": {"type": "Point", "coordinates": [46.32335598419569, -68.76165203666457]}}, {"type": "Feature", "properties": {"norad_id": 34685, "name": "COSMOS 2251 DEB", "group": "cosmos-2251-debris", "lat": 73.40150906582458, "lon": -103.60286701703434, "alt_km": 703.3747823144759, "timestamp": "2025-12-11T22:43:47.665619+00:00", "meta": {"OBJECT_NAME": "COSMOS 2251 DEB", "OBJECT_ID": "1993-036YF", "EPOCH": "2025-12-11T12:40:30.502848", "MEAN_MOTION": 14.57491129, "ECCENTRICITY": 0.00142944, "INCLINATION": 74.0292, "RA_OF_ASC_NODE": 151.0861, "ARG_OF_PERICENTER": 255.2353, "MEAN_ANOMALY": 162.0443, "EPHEMERIS_TYPE": 0, "CLASSIFICATION_TYPE": "U", "NORAD_CAT_ID": 34685, "ELEMENT_SET_NO": 999, "REV_AT_EPOCH": 88514, "BSTAR": 0.0019106795, "MEAN_MOTION_DOT": 8.676e-05, "MEAN_MOTION_DDOT": 0}, "tle": {"line1": "1 34685U 93036YF  25345.52813082  .00008676  00000+0  19107-2 0  9991", "line2": "2 34685  74.0292 151.0861 0014294 255.2353 162.0443 14.57491129885148"}}, "geometry": {"type": "Point", "coordinates": [-103.60286701703434, 73.40150906582458]}}, {"type": "Feature", "properties": {"norad_id": 34689, "name": "COSMOS 2251 DEB", "group": "cosmos-2251-debris", "lat": 74.06761794648833, "lon": -48.20893213658893, "alt_km": 1021.2819093131211, "timestamp": "2025-12-11T22:43:47.665629+00:00", "meta": {"OBJECT_NAME": "COSMOS 2251 DEB", "OBJECT_ID": "1993-036YK", "EPOCH": "2025-12-09T15:43:43.204224", "MEAN_MOTION": 14.04380278, "ECCENTRICITY": 0.022877, "INCLINATION": 74.0977, "RA_OF_ASC_NODE": 228.7634, "ARG_OF_PERICENTER": 298.3373, "MEAN_ANOMALY": 87.6678, "EPHEMERIS_TYPE": 0, "CLASSIFICATION_TYPE": "U", "NORAD_CAT_ID": 34689, "ELEMENT_SET_NO": 999, "REV_AT_EPOCH": 84298, "BSTAR": 0.0057121, "MEAN_MOTION_DOT": 0.00011476, "MEAN_MOTION_DDOT": 0}, "tle": {"line1": "1 34689U 93036YK  25343.65536116  .00011476  00000+0  57121-2 0  9997", "line2": "2 34689  74.0977 228.7634 0228770 298.3373  87.6678 14.04380278842989"}}, "geometry": {"type": "Point", "coordinates": [-48.20893213658893, 74.06761794648833]}}, {"type": "Feature", "properties": {"norad_id": 34721, "name": "COSMOS 2251 DEB", "group": "cosmos-2251-debris", "lat": 40.06893754481269, "lon": 133.58672630540997, "alt_km": 1001.2241078200559, "timestamp": "2025-12-11T22:43:47.665640+00:00", "meta": {"OBJECT_NAME": "COSMOS 2251 DEB", "OBJECT_ID": "1993-036YP", "EPOCH": "2025-12-11T15:46:16.254048", "MEAN_MOTION": 13.96844968, "ECCENTRICITY": 0.02237513, "INCLINATION": 73.9236, "RA_OF_ASC_NODE": 328.1273, "ARG_OF_PERICENTER": 267.2754, "MEAN_ANOMALY": 215.1227, "EPHEMERIS_TYPE": 0, "CLASSIFICATION_TYPE": "U", "NORAD_CAT_ID": 34721, "ELEMENT_SET_NO": 999, "REV_AT_EPOCH": 85134, "BSTAR": 0.0023947669, "MEAN_MOTION_DOT": 4.09e-05, "MEAN_MOTION_DDOT": 0}, "tle": {"line1": "1 34721U 93036YP  25345.65713257  .00004090  00000+0  23948-2 0  9993", "line2": "2 34721  73.9236 328.1273 0223751 267.2754 215.1227 13.96844968851347"}}, "geometry": {"type": "Point", "coordinates": [133.58672630540997, 40.06893754481269]}}, {"type": "Feature", "properties": {"norad_id": 34722, "name": "COSMOS 2251 DEB", "group": "cosmos-2251-debris", "lat": -34.27619636742059, "lon": -33.89013795815166, "alt_km": 798.5044461567195, "timestamp": "2025-12-11T22:43:47.665651+00:00", "meta": {"OBJECT_NAME": "COSMOS 2251 DEB", "OBJECT_ID": "1993-036YQ", "EPOCH": "2025-12-11T10:01:36.992064", "MEAN_MOTION": 14.11928853, "ECCENTRICITY": 0.01672055, "INCLINATION": 73.8734, "RA_OF_ASC_NODE": 338.4258, "ARG_OF_PERICENTER": 264.2111, "MEAN_ANOMALY": 249.0176, "EPHEMERIS_TYPE": 0, "CLASSIFICATION_TYPE": "U", "NORAD_CAT_ID": 34722, "ELEMENT_SET_NO": 999, "REV_AT_EPOCH": 86226, "BSTAR": 0.0013747981, "MEAN_MOTION_DOT": 2.841e-05, "MEAN_MOTION_DDOT": 0}, "tle": {"line1": "1 34722U 93036YQ  25345.41778926  .00002841  00000+0  13748-2 0  9991", "line2": "2 34722  73.8734 338.4258 0167205 264.2111 249.0176 14.11928853862268"}}, "geometry": {"type": "Point", "coordinates": [-33.89013795815166, -34.27619636742059]}}, {"type": "Feature", "properties": {"norad_id": 34726, "name": "COSMOS 2251 DEB", "group": "cosmos-2251-debris", "lat": -34.16835466588347, "lon": 179.04602466819287, "alt_km": 693.7400686926094, "timestamp": "2025-12-11T22:43:47.665661+00:00", "meta": {"OBJECT_NAME": "COSMOS 2251 DEB", "OBJECT_ID": "1993-036YU", "EPOCH": "2025-12-11T00:21:43.820064", "MEAN_MOTION": 14.59471055, "ECCENTRICITY": 0.00420629, "INCLINATION": 74.0292, "RA_OF_ASC_NODE": 349.6136, "ARG_OF_PERICENTER": 141.0021, "MEAN_ANOMALY": 219.4191, "EPHEMERIS_TYPE": 0, "CLASSIFICATION_TYPE": "U", "NORAD_CAT_ID": 34726, "ELEMENT_SET_NO": 999, "REV_AT_EPOCH": 88477, "BSTAR": 0.00059341044, "MEAN_MOTION_DOT": 2.821e-05, "MEAN_MOTION_DDOT": 0}, "tle": {"line1": "1 34726U 93036YU  25345.01509051  .00002821  00000+0  59341-3 0  9990", "line2": "2 34726  74.0292 349.6136 0042062 141.0021 219.4191 14.59471055884775"}}, "geometry": {"type": "Point", "coordinates": [179.04602466819287, -34.16835466588347]}}, {"type": "Feature", "properties": {"norad_id": 34728, "name": "COSMOS 2251 DEB", "group": "cosmos-2251-debris", "lat": 57.06393086411679, "lon": -80.4300096679968, "alt_km": 624.1253482561433, "timestamp": "2025-12-11T22:43:47.665672+00:00", "meta": {"OBJECT_NAME": "COSMOS 2251 DEB", "OBJECT_ID": "1993-036YW", "EPOCH": "2025-12-11T04:29:59.772768", "MEAN_MOTION": 14.70820448, "ECCENTRICITY": 0.00410287, "INCLINATION": 74.0167, "RA_OF_ASC_NODE": 254.7862, "ARG_OF_PERICENTER": 52.8225, "MEAN_ANOMALY": 307.668, "EPHEMERIS_TYPE": 0, "CLASSIFICATION_TYPE": "U", "NORAD_CAT_ID": 34728, "ELEMENT_SET_NO": 999, "REV_AT_EPOCH": 88777, "BSTAR": 0.0012296357, "MEAN_MOTION_DOT": 7.588e-05, "MEAN_MOTION_DDOT": 0}, "tle": {"line1": "1 34728U 93036YW  25345.18749737  .00007588  00000+0  12296-2 0  9999", "line2": "2 34728  74.0167 254.7862 0041028  52.8225 307.6680 14.70820448887779"}}, "geometry": {"type": "Point", "coordinates": [-80.4300096679968, 57.06393086411679]}}, {"type": "Feature", "properties": {"norad_id": 34729, "name": "COSMOS 2251 DEB", "group": "cosmos-2251-debris", "lat": 38.27734596845747, "lon": 13.070674267213743, "alt_km": 615.8657272931478, "timestamp": "2025-12-11T22:43:47.665683+00:00", "meta": {"OBJECT_NAME": "COSMOS 2251 DEB", "OBJECT_ID": "1993-036YX", "EPOCH": "2025-12-11T11:53:33.442944", "MEAN_MOTION": 14.82746168, "ECCENTRICITY": 0.0011812, "INCLINATION": 74.0184, "RA_OF_ASC_NODE": 0.8939, "ARG_OF_PERICENTER": 120.5033, "MEAN_ANOMALY": 30.4826, "EPHEMERIS_TYPE": 0, "CLASSIFICATION_TYPE": "U", "NORAD_CAT_ID": 34729, "ELEMENT_SET_NO": 999, "REV_AT_EPOCH": 88439, "BSTAR": 0.0036352338, "MEAN_MOTION_DOT": 0.00029499, "MEAN_MOTION_DDOT": 0}, "tle": {"line1": "1 34729U 93036YX  25345.49552596  .00029499  00000+0  36352-2 0  9993", "line2": "2 34729  74.0184   0.8939 0011812 120.5033  30.4826 14.82746168884399"}}, "geometry": {"type": "Point", "coordinates": [13.070674267213743, 38.27734596845747]}}, {"type": "Feature", "properties": {"norad_id": 34732, "name": "COSMOS 2251 DEB", "group": "cosmos-2251-debris", "lat": 7.468812705342554, "lon": 96.8167098422404, "alt_km": 751.2744119645977, "timestamp": "2025-12-11T22:43:47.665693+00:00", "meta": {"OBJECT_NAME": "COSMOS 2251 DEB", "OBJECT_ID": "1993-036ZA", "EPOCH": "2025-12-11T07:54:25.399296", "MEAN_MOTION": 14.47298707, "ECCENTRICITY": 0.00404226, "INCLINATION": 74.0452, "RA_OF_ASC_NODE": 95.821, "ARG_OF_PERICENTER": 247.1005, "MEAN_ANOMALY": 143.733, "EPHEMERIS_TYPE": 0, "CLASSIFICATION_TYPE": "U", "NORAD_CAT_ID": 34732, "ELEMENT_SET_NO": 999, "REV_AT_EPOCH": 88123, "BSTAR": 0.00027123805, "MEAN_MOTION_DOT": 9.75e-06, "MEAN_MOTION_DDOT": 0}, "tle": {"line1": "1 34732U 93036ZA  25345.32946064  .00000975  00000+0  27124-3 0  9992", "line2": "2 34732  74.0452  95.8210 0040422 247.1005 143.7330 14.47298707881231"}}, "geometry": {"type": "Point", "coordinates": [96.8167098422404, 7.468812705342554]}}]}